[{"OBJECT_NAME":"OBJECT F","OBJECT_ID":"2022-023F","EPOCH":"2026-03-09T23:55:35.397408","MEAN_MOTION":15.18257694,"ECCENTRICITY":0.01194645,"INCLINATION":63.4547,"RA_OF_ASC_NODE":250.628,"ARG_OF_PERICENTER":343.8947,"MEAN_ANOMALY":15.838,"EPHEMERIS_TYPE":0,"CLASSIFICATION_TYPE":"U","NORAD_CAT_ID":51951,"ELEMENT_SET_NO":999,"REV_AT_EPOCH":22265,"BSTAR":0.00028900174,"MEAN_MOTION_DOT":6.929e-5,"MEAN_MOTION_DDOT":0},{"OBJECT_NAME":"STARLINK-36148","OBJECT_ID":"2025-293C","EPOCH":"2026-03-09T11:28:19.264800","MEAN_MOTION":14.9828441,"ECCENTRICITY":0.00029224,"INCLINATION":70.0007,"RA_OF_ASC_NODE":95.0917,"ARG_OF_PERICENTER":268.3794,"MEAN_ANOMALY":91.703,"EPHEMERIS_TYPE":0,"CLASSIFICATION_TYPE":"U","NORAD_CAT_ID":67005,"ELEMENT_SET_NO":999,"REV_AT_EPOCH":1485,"BSTAR":-0.00086095425,"MEAN_MOTION_DOT":-0.00010338,"MEAN_MOTION_DDOT":0}]
